NORAD_CAT_ID,OBJECT_NAME,OBJECT_TYPE,EPOCH,MEAN_MOTION,ECCENTRICITY,INCLINATION,RA_OF_ASC_NODE,ARG_OF_PERICENTER,MEAN_ANOMALY,BSTAR,MEAN_MOTION_DOT,MEAN_MOTION_DDOT,TLE_LINE0,TLE_LINE1,TLE_LINE2,SEMIMAJOR_AXIS,PERIOD,APOGEE,PERIGEE,DECAYED
51116.0,STARLINK-3243,PAYLOAD,2023-01-18 06:40:59,15.08864839,0.0001353,53.2164,35.5663,71.9357,288.1783,0.0024629,0.00039154,0.0,0 STARLINK-3243,1 51116U 22005N   23018.27846229  .00039154  00000-0  24629-2 0  9994,2 51116  53.2164  35.5663 0001353  71.9357 288.1783 15.08864839 56919,6917.804,95.436,540.605,538.7330000000001,0.0
51116.0,STARLINK-3243,PAYLOAD,2023-01-18 08:16:22,15.08870688,0.0001359,53.2162,35.2689,72.2994,287.8146,0.0025485,0.00040539,0.0,0 STARLINK-3243,1 51116U 22005N   23018.34470104  .00040539  00000-0  25485-2 0  9997,2 51116  53.2162  35.2689 0001359  72.2994 287.8146 15.08870688 55815,6917.786999999999,95.436,540.592,538.711,0.0
51116.0,STARLINK-3243,PAYLOAD,2023-01-18 17:48:40,15.0887764,0.0001153,53.2154,33.4854,74.365,285.7469,0.0017497,0.00027697,0.0,0 STARLINK-3243,1 51116U 22005N   23018.74213488  .00027697  00000-0  17497-2 0  9995,2 51116  53.2154  33.4854 0001153  74.3650 285.7469 15.08877640 56983,6917.765,95.435,540.428,538.8330000000001,0.0
51116.0,STARLINK-3243,PAYLOAD,2023-01-19 11:17:53,15.08881876,0.0001376999999999,53.2149,30.2128,76.9984,283.1162,0.00080948,0.00012633,0.0,0 STARLINK-3243,1 51116U 22005N   23019.47075986  .00012633  00000-0  80948-3 0  9991,2 51116  53.2149  30.2128 0001377  76.9984 283.1162 15.08881876 57093,6917.752,95.435,540.57,538.665,0.0
51116.0,STARLINK-3243,PAYLOAD,2023-01-19 17:39:26,15.08855087,0.0001228,53.2162,29.0232,97.087,263.0262,-3.4762e-05,-8.41e-06,0.0,0 STARLINK-3243,1 51116U 22005N   23019.73572191 -.00000841  00000-0 -34762-4 0  9994,2 51116  53.2162  29.0232 0001228  97.0870 263.0262 15.08855087 57131,6917.834,95.437,540.549,538.85,0.0
51116.0,STARLINK-3243,PAYLOAD,2023-01-20 01:36:22,15.0883652,0.0001703,53.2158,27.5384,92.4586,267.6602,-0.0004266999999999,-7.072e-05,0.0,0 STARLINK-3243,1 51116U 22005N   23020.06692706 -.00007072  00000-0 -42670-3 0  9996,2 51116  53.2158  27.5384 0001703  92.4586 267.6602 15.08836520 57182,6917.891,95.438,540.934,538.578,0.0
51116.0,STARLINK-3243,PAYLOAD,2023-01-20 07:57:55,15.08836493,0.0001595999999999,53.2164,26.3481,96.0273,264.0901,6.7317e-06,-1.81e-06,0.0,0 STARLINK-3243,1 51116U 22005N   23020.33188830 -.00000181  00000-0  67317-5 0  9994,2 51116  53.2164  26.3481 0001596  96.0273 264.0901 15.08836493 56111,6917.891,95.438,540.86,538.6519999999999,0.0
51116.0,STARLINK-3243,PAYLOAD,2023-01-21 09:24:05,15.08849576,0.0001426999999999,53.2155,21.587,101.4141,258.7012,0.00080852,0.00012606,0.0,0 STARLINK-3243,1 51116U 22005N   23021.39173171  .00012606  00000-0  80852-3 0  9994,2 51116  53.2155  21.5870 0001427 101.4141 258.7012 15.08849576 57387,6917.851,95.437,540.703,538.729,0.0
51116.0,STARLINK-3243,PAYLOAD,2023-01-22 02:53:20,15.08838274,0.0001341999999999,53.2179,18.3154,114.9207,245.1925,0.00031686,4.758e-05,0.0,0 STARLINK-3243,1 51116U 22005N   23022.12037657  .00004758  00000-0  31686-3 0  9994,2 51116  53.2179  18.3154 0001342 114.9207 245.1925 15.08838274 57498,6917.886,95.438,540.679,538.822,0.0
51116.0,STARLINK-3243,PAYLOAD,2023-01-23 09:05:39,15.08861062,0.0001217,53.2172,12.6657,92.1551,267.958,0.00082249,0.00012834,0.0,0 STARLINK-3243,1 51116U 22005N   23023.37893449  .00012834  00000-0  82249-3 0  9996,2 51116  53.2172  12.6657 0001217  92.1551 267.9580 15.08861062 57687,6917.816,95.436,540.523,538.839,0.0
51116.0,STARLINK-3243,PAYLOAD,2023-01-24 04:10:17,15.08844937,0.0001333,53.2177,9.0977,100.1477,259.9665,0.0003028,4.535e-05,0.0,0 STARLINK-3243,1 51116U 22005N   23024.17381806  .00004535  00000-0  30280-3 0  9991,2 51116  53.2177   9.0977 0001333 100.1477 259.9665 15.08844937 57804,6917.865,95.437,540.6519999999999,538.808,0.0
51116.0,STARLINK-3243,PAYLOAD,2023-01-24 15:18:00,15.08832325,0.0002121,53.2188,7.0158,66.5241,293.5974,0.00047731,7.315e-05,0.0,0 STARLINK-3243,1 51116U 22005N   23024.63750329  .00007315  00000-0  47731-3 0  9990,2 51116  53.2188   7.0158 0002121  66.5241 293.5974 15.08832325 57877,6917.904,95.438,541.236,538.302,0.0
51116.0,STARLINK-3243,PAYLOAD,2023-01-25 08:47:14,15.08848871,0.0001249,53.2173,3.747,90.4119,269.7016,0.0012034,0.00018921,0.0,0 STARLINK-3243,1 51116U 22005N   23025.36614149  .00018921  00000-0  12034-2 0  9992,2 51116  53.2173   3.7470 0001249  90.4119 269.7016 15.08848871 56875,6917.853,95.437,540.582,538.854,0.0
51116.0,STARLINK-3243,PAYLOAD,2023-01-25 15:08:46,15.08863144,0.0001230999999999,53.218,2.5581,90.6478,269.4655,0.00099313,0.00015563,0.0,0 STARLINK-3243,1 51116U 22005N   23025.63109641  .00015563  00000-0  99313-3 0  9993,2 51116  53.2180   2.5581 0001231  90.6478 269.4655 15.08863144 58029,6917.81,95.436,540.526,538.823,0.0
51116.0,STARLINK-3243,PAYLOAD,2023-01-26 02:16:29,15.08853261,0.0001231999999999,53.2168,0.4742,94.4594,265.6538,0.00063226,9.792e-05,0.0,0 STARLINK-3243,1 51116U 22005N   23026.09478018  .00009792  00000-0  63226-3 0  9992,2 51116  53.2168   0.4742 0001232  94.4594 265.6538 15.08853261 58097,6917.84,95.437,540.557,538.8530000000001,0.0
51116.0,STARLINK-3243,PAYLOAD,2023-01-26 07:02:37,15.08882111,0.0001264999999999,53.2178,359.584,94.0568,266.0569,0.0016335,0.00025835,0.0,0 STARLINK-3243,1 51116U 22005N   23026.29349284  .00025835  00000-0  16335-2 0  9990,2 51116  53.2178 359.5840 0001265  94.0568 266.0569 15.08882111 58127,6917.752,95.435,540.492,538.742,0.0
51116.0,STARLINK-3243,PAYLOAD,2023-01-27 02:07:15,15.08858258,0.0001527,53.2171,356.0161,107.0253,253.0907,0.0012075999999999,0.00018993,0.0,0 STARLINK-3243,1 51116U 22005N   23027.08837498  .00018993  00000-0  12076-2 0  9992,2 51116  53.2171 356.0161 0001527 107.0253 253.0907 15.08858258 58245,6917.825,95.436,540.746,538.633,0.0
51116.0,STARLINK-3243,PAYLOAD,2023-01-27 08:28:48,15.088327800000002,0.0001386999999999,53.2168,354.8262,77.8834,282.2313,0.00019457,2.809e-05,0.0,0 STARLINK-3243,1 51116U 22005N   23027.35333868  .00002809  00000-0  19457-3 0  9994,2 51116  53.2168 354.8262 0001387  77.8834 282.2313 15.08832780 58283,6917.901999999999,95.438,540.727,538.808,0.0
51116.0,STARLINK-3243,PAYLOAD,2023-01-28 06:44:12,15.08839332,0.0001267,53.2157,350.6619,88.7752,271.3385,0.00059206,9.147e-05,0.0,0 STARLINK-3243,1 51116U 22005N   23028.28070521  .00009147  00000-0  59206-3 0  9999,2 51116  53.2157 350.6619 0001267  88.7752 271.3385 15.08839332 57319,6917.882,95.438,540.624,538.871,0.0
51116.0,STARLINK-3243,PAYLOAD,2023-01-29 03:24:13,15.08848967,0.0001306,53.2156,346.7955,99.2105,260.9035,0.00061771,9.559e-05,0.0,0 STARLINK-3243,1 51116U 22005N   23029.14182103  .00009559  00000-0  61771-3 0  9992,2 51116  53.2156 346.7955 0001306  99.2105 260.9035 15.08848967 58557,6917.853,95.437,540.621,538.815,0.0
51116.0,STARLINK-3243,PAYLOAD,2023-01-29 06:34:59,15.08854363,0.0001331,53.2159,346.2011,96.9231,263.1912,0.00077575,0.00012084,0.0,0 STARLINK-3243,1 51116U 22005N   23029.27429956  .00012084  00000-0  77575-3 0  9992,2 51116  53.2159 346.2011 0001331  96.9231 263.1912 15.08854363 57465,6917.836,95.437,540.622,538.781,0.0
51116.0,STARLINK-3243,PAYLOAD,2023-01-30 06:25:46,15.08843395,0.0001405,53.2166,341.742,80.6178,279.4973,0.00014289,1.987e-05,0.0,0 STARLINK-3243,1 51116U 22005N   23030.26790372  .00001987  00000-0  14289-3 0  9999,2 51116  53.2166 341.7420 0001405  80.6178 279.4973 15.08843395 58729,6917.87,95.437,540.707,538.763,0.0
51116.0,STARLINK-3243,PAYLOAD,2023-01-31 06:16:33,15.08852062,0.0001452,53.2175,337.2801,85.1046,275.0111,0.00041834,6.378e-05,0.0,0 STARLINK-3243,1 51116U 22005N   23031.26150111  .00006378  00000-0  41834-3 0  9996,2 51116  53.2175 337.2801 0001452  85.1046 275.0111 15.08852062 57768,6917.844,95.437,540.713,538.704,0.0
51116.0,STARLINK-3243,PAYLOAD,2023-01-31 18:59:38,15.08842808,0.0001469,53.2167,334.9011,86.025,274.091,0.0001421,1.974e-05,0.0,0 STARLINK-3243,1 51116U 22005N   23031.79142310  .00001974  00000-0  14210-3 0  9991,2 51116  53.2167 334.9011 0001469  86.0250 274.0910 15.08842808 58956,6917.872,95.437,540.753,538.721,0.0
51116.0,STARLINK-3243,PAYLOAD,2023-01-31 20:35:02,15.08843906,0.0001448,53.2161,334.604,81.3581,278.7575,0.00016724,2.375e-05,0.0,0 STARLINK-3243,1 51116U 22005N   23031.85766223  .00002375  00000-0  16724-3 0  9991,2 51116  53.2161 334.6040 0001448  81.3581 278.7575 15.08843906 57857,6917.868,95.437,540.735,538.732,0.0
51116.0,STARLINK-3243,PAYLOAD,2023-02-01 02:56:34,15.08852467,0.0001341,53.2159,333.4167,85.8316,274.2829,0.00024639,3.637e-05,0.0,0 STARLINK-3243,1 51116U 22005N   23032.12261679  .00003637  00000-0  24639-3 0  9993,2 51116  53.2159 333.4167 0001341  85.8316 274.2829 15.08852467 59002,6917.842,95.437,540.635,538.78,0.0
51116.0,STARLINK-3243,PAYLOAD,2023-02-01 06:07:20,15.08856048,0.0001533,53.216,332.8216,89.5204,270.5964,0.00029252,4.373e-05,0.0,0 STARLINK-3243,1 51116U 22005N   23032.25509543  .00004373  00000-0  29252-3 0  9996,2 51116  53.2160 332.8216 0001533  89.5204 270.5964 15.08856048 57918,6917.831,95.437,540.757,538.636,0.0
51116.0,STARLINK-3243,PAYLOAD,2023-02-02 02:47:21,15.08835701,0.0001391,53.217,328.9563,81.7524,278.3626,-0.00010628,-1.979e-05,0.0,0 STARLINK-3243,1 51116U 22005N   23033.11622352 -.00001979  00000-0 -10628-3 0  9994,2 51116  53.2170 328.9563 0001391  81.7524 278.3626 15.08835701 59153,6917.894,95.438,540.721,538.796,0.0
51116.0,STARLINK-3243,PAYLOAD,2023-02-02 05:58:08,15.08837736,0.0001417,53.2172,328.3609,77.9493,282.1658,-1.6631e-05,-5.53e-06,0.0,0 STARLINK-3243,1 51116U 22005N   23033.24870396 -.00000553  00000-0 -16631-4 0  9999,2 51116  53.2172 328.3609 0001417  77.9493 282.1658 15.08837736 58068,6917.887,95.438,540.733,538.772,0.0
